ONEWEB-0414             
1 50491U 21132Y   24271.52017671  .00000130  00000+0  29653-3 0  9994
2 50491  87.9050 100.3828 0001374  90.3362 269.7927 13.18686604138906
ONEWEB-0417             
1 50492U 21132Z   24271.52806468  .00000065  00000+0  13264-3 0  9993
2 50492  87.9055 100.3912 0001599  78.7230 281.4081 13.18687713140175
ONEWEB-0418             
1 50493U 21132AA  24271.46153084  .00000127  00000+0  28923-3 0  9993
2 50493  87.9054 100.4036 0001564  69.5676 290.5624 13.18688476138939
ONEWEB-0419             
1 50494U 21132AB  24271.47907306  .00000156  00000+0  36266-3 0  9990
2 50494  87.9047 100.4136 0001943  78.9566 281.1785 13.18687493140144
ONEWEB-0420             
1 50495U 21132AC  24271.52173926  .00000103  00000+0  22863-3 0  9990
2 50495  87.9049 100.4139 0001753  97.1770 262.9561 13.18688385138854
ONEWEB-0421             
1 50496U 21132AD  24271.51541889  .00000070  00000+0  14546-3 0  9999
2 50496  87.9058 100.3887 0001312  93.7667 266.3615 13.18687762140198
ONEWEB-0424             
1 50497U 21132AE  24271.47433022  .00000143  00000+0  32875-3 0  9990
2 50497  87.9052 100.3982 0002121  78.4783 281.6587 13.18687142138914
ONEWEB-0426             
1 50498U 21132AF  24271.51224717  .00000131  00000+0  29956-3 0  9998
2 50498  87.9048 100.4036 0001163  70.8325 289.2933 13.18688744140151
